[
  {
    "COMMENT": "GENERATED VIA SPACETRACK.ORG API",
    "ORIGINATOR": "18 SPCS",
    "NORAD_CAT_ID": "25260",
    "OBJECT_NAME": "SPOT 4",
    "OBJECT_TYPE": "PAYLOAD",
    "CLASSIFICATION_TYPE": "U",
    "INTLDES": "98017A",
    "EPOCH": "2023-04-24 05:52:53",
    "EPOCH_MICROSECONDS": "205600",
    "MEAN_MOTION": "14.5414744",
    "ECCENTRICITY": "0.0013215",
    "INCLINATION": "98.2607",
    "RA_OF_ASC_NODE": "207.9086",
    "ARG_OF_PERICENTER": "170.1139",
    "MEAN_ANOMALY": "190.032",
    "EPHEMERIS_TYPE": "0",
    "ELEMENT_SET_NO": "999",
    "REV_AT_EPOCH": "31231",
    "BSTAR": "0.00042818",
    "MEAN_MOTION_DOT": "0.00001767",
    "MEAN_MOTION_DDOT": "0",
    "FILE": "3893277",
    "TLE_LINE0": "0 SPOT 4",
    "TLE_LINE1": "1 25260U 98017A   23114.24506025  .00001767  00000-0  42818-3 0  9992",
    "TLE_LINE2": "2 25260  98.2607 207.9086 0013215 170.1139 190.0320 14.54147440312314",
    "OBJECT_ID": "1998-017A",
    "OBJECT_NUMBER": "25260",
    "SEMIMAJOR_AXIS": "7090.272",
    "PERIOD": "99.027",
    "APOGEE": "721.507",
    "PERIGEE": "702.767",
    "DECAYED": "0"
  },
  {
    "COMMENT": "GENERATED VIA SPACETRACK.ORG API",
    "ORIGINATOR": "18 SPCS",
    "NORAD_CAT_ID": "25260",
    "OBJECT_NAME": "SPOT 4",
    "OBJECT_TYPE": "PAYLOAD",
    "CLASSIFICATION_TYPE": "U",
    "INTLDES": "98017A",
    "EPOCH": "2023-04-24 05:52:53",
    "EPOCH_MICROSECONDS": "205600",
    "MEAN_MOTION": "14.5414744",
    "ECCENTRICITY": "0.0013215",
    "INCLINATION": "98.2607",
    "RA_OF_ASC_NODE": "207.9086",
    "ARG_OF_PERICENTER": "170.1139",
    "MEAN_ANOMALY": "190.032",
    "EPHEMERIS_TYPE": "0",
    "ELEMENT_SET_NO": "999",
    "REV_AT_EPOCH": "31207",
    "BSTAR": "0.00042818",
    "MEAN_MOTION_DOT": "0.00001767",
    "MEAN_MOTION_DDOT": "0",
    "FILE": "3893330",
    "TLE_LINE0": "0 SPOT 4",
    "TLE_LINE1": "1 25260U 98017A   23114.24506025  .00001767  00000-0  42818-3 0  9992",
    "TLE_LINE2": "2 25260  98.2607 207.9086 0013215 170.1139 190.0320 14.54147440312077",
    "OBJECT_ID": "1998-017A",
    "OBJECT_NUMBER": "25260",
    "SEMIMAJOR_AXIS": "7090.272",
    "PERIOD": "99.027",
    "APOGEE": "721.507",
    "PERIGEE": "702.767",
    "DECAYED": "0"
  },
  {
    "COMMENT": "GENERATED VIA SPACETRACK.ORG API",
    "ORIGINATOR": "18 SPCS",
    "NORAD_CAT_ID": "25260",
    "OBJECT_NAME": "SPOT 4",
    "OBJECT_TYPE": "PAYLOAD",
    "CLASSIFICATION_TYPE": "U",
    "INTLDES": "98017A",
    "EPOCH": "2023-04-25 03:21:00",
    "EPOCH_MICROSECONDS": "582912",
    "MEAN_MOTION": "14.5414293",
    "ECCENTRICITY": "0.0013293",
    "INCLINATION": "98.2607",
    "RA_OF_ASC_NODE": "208.7916",
    "ARG_OF_PERICENTER": "167.3795",
    "MEAN_ANOMALY": "192.7736",
    "EPHEMERIS_TYPE": "0",
    "ELEMENT_SET_NO": "999",
    "REV_AT_EPOCH": "31244",
    "BSTAR": "0.00020745",
    "MEAN_MOTION_DOT": "0.00000833",
    "MEAN_MOTION_DDOT": "0",
    "FILE": "3893819",
    "TLE_LINE0": "0 SPOT 4",
    "TLE_LINE1": "1 25260U 98017A   23115.13959008  .00000833  00000-0  20745-3 0  9992",
    "TLE_LINE2": "2 25260  98.2607 208.7916 0013293 167.3795 192.7736 14.54142930312440",
    "OBJECT_ID": "1998-017A",
    "OBJECT_NUMBER": "25260",
    "SEMIMAJOR_AXIS": "7090.286",
    "PERIOD": "99.027",
    "APOGEE": "721.577",
    "PERIGEE": "702.726",
    "DECAYED": "0"
  },
  {
    "COMMENT": "GENERATED VIA SPACETRACK.ORG API",
    "ORIGINATOR": "18 SPCS",
    "NORAD_CAT_ID": "25260",
    "OBJECT_NAME": "SPOT 4",
    "OBJECT_TYPE": "PAYLOAD",
    "CLASSIFICATION_TYPE": "U",
    "INTLDES": "98017A",
    "EPOCH": "2023-04-25 06:39:10",
    "EPOCH_MICROSECONDS": "884384",
    "MEAN_MOTION": "14.54143238",
    "ECCENTRICITY": "0.0013301",
    "INCLINATION": "98.2607",
    "RA_OF_ASC_NODE": "208.9274",
    "ARG_OF_PERICENTER": "166.9315",
    "MEAN_ANOMALY": "193.2229",
    "EPHEMERIS_TYPE": "0",
    "ELEMENT_SET_NO": "999",
    "REV_AT_EPOCH": "31222",
    "BSTAR": "0.00020813",
    "MEAN_MOTION_DOT": "0.00000836",
    "MEAN_MOTION_DDOT": "0",
    "FILE": "3894092",
    "TLE_LINE0": "0 SPOT 4",
    "TLE_LINE1": "1 25260U 98017A   23115.27720931  .00000836  00000-0  20813-3 0  9997",
    "TLE_LINE2": "2 25260  98.2607 208.9274 0013301 166.9315 193.2229 14.54143238312223",
    "OBJECT_ID": "1998-017A",
    "OBJECT_NUMBER": "25260",
    "SEMIMAJOR_AXIS": "7090.285",
    "PERIOD": "99.027",
    "APOGEE": "721.581",
    "PERIGEE": "702.720",
    "DECAYED": "0"
  },
  {
    "COMMENT": "GENERATED VIA SPACETRACK.ORG API",
    "ORIGINATOR": "18 SPCS",
    "NORAD_CAT_ID": "25260",
    "OBJECT_NAME": "SPOT 4",
    "OBJECT_TYPE": "PAYLOAD",
    "CLASSIFICATION_TYPE": "U",
    "INTLDES": "98017A",
    "EPOCH": "2023-04-26 05:46:23",
    "EPOCH_MICROSECONDS": "11968",
    "MEAN_MOTION": "14.54144275",
    "ECCENTRICITY": "0.0013366",
    "INCLINATION": "98.2607",
    "RA_OF_ASC_NODE": "209.8784",
    "ARG_OF_PERICENTER": "164.0384",
    "MEAN_ANOMALY": "196.1236",
    "EPHEMERIS_TYPE": "0",
    "ELEMENT_SET_NO": "999",
    "REV_AT_EPOCH": "31236",
    "BSTAR": "0.00017986",
    "MEAN_MOTION_DOT": "0.00000716",
    "MEAN_MOTION_DDOT": "0",
    "FILE": "3894260",
    "TLE_LINE0": "0 SPOT 4",
    "TLE_LINE1": "1 25260U 98017A   23116.24054412  .00000716  00000-0  17986-3 0  9993",
    "TLE_LINE2": "2 25260  98.2607 209.8784 0013366 164.0384 196.1236 14.54144275312362",
    "OBJECT_ID": "1998-017A",
    "OBJECT_NUMBER": "25260",
    "SEMIMAJOR_AXIS": "7090.282",
    "PERIOD": "99.027",
    "APOGEE": "721.624",
    "PERIGEE": "702.670",
    "DECAYED": "0"
  },
  {
    "COMMENT": "GENERATED VIA SPACETRACK.ORG API",
    "ORIGINATOR": "18 SPCS",
    "NORAD_CAT_ID": "25260",
    "OBJECT_NAME": "SPOT 4",
    "OBJECT_TYPE": "PAYLOAD",
    "CLASSIFICATION_TYPE": "U",
    "INTLDES": "98017A",
    "EPOCH": "2023-04-27 04:53:35",
    "EPOCH_MICROSECONDS": "31552",
    "MEAN_MOTION": "14.54145715",
    "ECCENTRICITY": "0.0013437",
    "INCLINATION": "98.2608",
    "RA_OF_ASC_NODE": "210.8293",
    "ARG_OF_PERICENTER": "161.1973",
    "MEAN_ANOMALY": "198.9722",
    "EPHEMERIS_TYPE": "0",
    "ELEMENT_SET_NO": "999",
    "REV_AT_EPOCH": "31274",
    "BSTAR": "0.00016795",
    "MEAN_MOTION_DOT": "0.00000666",
    "MEAN_MOTION_DDOT": "0",
    "FILE": "3894451",
    "TLE_LINE0": "0 SPOT 4",
    "TLE_LINE1": "1 25260U 98017A   23117.20387768  .00000666  00000-0  16795-3 0  9994",
    "TLE_LINE2": "2 25260  98.2608 210.8293 0013437 161.1973 198.9722 14.54145715312743",
    "OBJECT_ID": "1998-017A",
    "OBJECT_NUMBER": "25260",
    "SEMIMAJOR_AXIS": "7090.277",
    "PERIOD": "99.027",
    "APOGEE": "721.670",
    "PERIGEE": "702.615",
    "DECAYED": "0"
  },
  {
    "COMMENT": "GENERATED VIA SPACETRACK.ORG API",
    "ORIGINATOR": "18 SPCS",
    "NORAD_CAT_ID": "25260",
    "OBJECT_NAME": "SPOT 4",
    "OBJECT_TYPE": "PAYLOAD",
    "CLASSIFICATION_TYPE": "U",
    "INTLDES": "98017A",
    "EPOCH": "2023-04-27 06:32:40",
    "EPOCH_MICROSECONDS": "168896",
    "MEAN_MOTION": "14.54145831",
    "ECCENTRICITY": "0.0013441",
    "INCLINATION": "98.2608",
    "RA_OF_ASC_NODE": "210.8973",
    "ARG_OF_PERICENTER": "161.0164",
    "MEAN_ANOMALY": "199.1536",
    "EPHEMERIS_TYPE": "0",
    "ELEMENT_SET_NO": "999",
    "REV_AT_EPOCH": "31251",
    "BSTAR": "0.0001672",
    "MEAN_MOTION_DOT": "0.00000662",
    "MEAN_MOTION_DDOT": "0",
    "FILE": "3894751",
    "TLE_LINE0": "0 SPOT 4",
    "TLE_LINE1": "1 25260U 98017A   23117.27268714  .00000662  00000-0  16720-3 0  9994",
    "TLE_LINE2": "2 25260  98.2608 210.8973 0013441 161.0164 199.1536 14.54145831312514",
    "OBJECT_ID": "1998-017A",
    "OBJECT_NUMBER": "25260",
    "SEMIMAJOR_AXIS": "7090.277",
    "PERIOD": "99.027",
    "APOGEE": "721.672",
    "PERIGEE": "702.612",
    "DECAYED": "0"
  },
  {
    "COMMENT": "GENERATED VIA SPACETRACK.ORG API",
    "ORIGINATOR": "18 SPCS",
    "NORAD_CAT_ID": "25260",
    "OBJECT_NAME": "SPOT 4",
    "OBJECT_TYPE": "PAYLOAD",
    "CLASSIFICATION_TYPE": "U",
    "INTLDES": "98017A",
    "EPOCH": "2023-04-27 06:32:40",
    "EPOCH_MICROSECONDS": "168896",
    "MEAN_MOTION": "14.54145831",
    "ECCENTRICITY": "0.0013441",
    "INCLINATION": "98.2608",
    "RA_OF_ASC_NODE": "210.8973",
    "ARG_OF_PERICENTER": "161.0164",
    "MEAN_ANOMALY": "199.1536",
    "EPHEMERIS_TYPE": "0",
    "ELEMENT_SET_NO": "999",
    "REV_AT_EPOCH": "31275",
    "BSTAR": "0.0001672",
    "MEAN_MOTION_DOT": "0.00000662",
    "MEAN_MOTION_DDOT": "0",
    "FILE": "3894981",
    "TLE_LINE0": "0 SPOT 4",
    "TLE_LINE1": "1 25260U 98017A   23117.27268714  .00000662  00000-0  16720-3 0  9994",
    "TLE_LINE2": "2 25260  98.2608 210.8973 0013441 161.0164 199.1536 14.54145831312750",
    "OBJECT_ID": "1998-017A",
    "OBJECT_NUMBER": "25260",
    "SEMIMAJOR_AXIS": "7090.277",
    "PERIOD": "99.027",
    "APOGEE": "721.672",
    "PERIGEE": "702.612",
    "DECAYED": "0"
  },
  {
    "COMMENT": "GENERATED VIA SPACETRACK.ORG API",
    "ORIGINATOR": "18 SPCS",
    "NORAD_CAT_ID": "25260",
    "OBJECT_NAME": "SPOT 4",
    "OBJECT_TYPE": "PAYLOAD",
    "CLASSIFICATION_TYPE": "U",
    "INTLDES": "98017A",
    "EPOCH": "2023-04-28 05:39:52",
    "EPOCH_MICROSECONDS": "109856",
    "MEAN_MOTION": "14.54147181",
    "ECCENTRICITY": "0.0013499",
    "INCLINATION": "98.2608",
    "RA_OF_ASC_NODE": "211.8482",
    "ARG_OF_PERICENTER": "158.1356",
    "MEAN_ANOMALY": "202.042",
    "EPHEMERIS_TYPE": "0",
    "ELEMENT_SET_NO": "999",
    "REV_AT_EPOCH": "31289",
    "BSTAR": "0.00015544",
    "MEAN_MOTION_DOT": "0.00000613",
    "MEAN_MOTION_DDOT": "0",
    "FILE": "3895302",
    "TLE_LINE0": "0 SPOT 4",
    "TLE_LINE1": "1 25260U 98017A   23118.23601979  .00000613  00000-0  15544-3 0  9994",
    "TLE_LINE2": "2 25260  98.2608 211.8482 0013499 158.1356 202.0420 14.54147181312890",
    "OBJECT_ID": "1998-017A",
    "OBJECT_NUMBER": "25260",
    "SEMIMAJOR_AXIS": "7090.273",
    "PERIOD": "99.027",
    "APOGEE": "721.709",
    "PERIGEE": "702.566",
    "DECAYED": "0"
  }
]